OBJECT_NAME,OBJECT_ID,EPOCH,MEAN_MOTION,ECCENTRICITY,INCLINATION,RA_OF_ASC_NODE,ARG_OF_PERICENTER,MEAN_ANOMALY,EPHEMERIS_TYPE,CLASSIFICATION_TYPE,NORAD_CAT_ID,ELEMENT_SET_NO,REV_AT_EPOCH,BSTAR,MEAN_MOTION_DOT,MEAN_MOTION_DDOT
INTELSAT 21 (IS-21),2012-045A,2026-06-06T11:29:06.133344,1.00273024,.0002082,0.0420,85.4143,357.2620,286.5091,0,U,38749,999,5041,0,-.272E-5,0
INTELSAT 23 (IS-23),2012-057A,2026-06-06T08:05:13.716384,1.00267444,.00003233,0.0119,322.5848,188.7340,171.7155,0,U,38867,999,4984,0,-.272E-5,0
FM-6,2013-058A,2026-06-06T12:55:12.282240,1.00277692,.00036109,0.0130,46.8915,120.7199,164.8349,0,U,39360,999,4596,0,-.4E-7,0
INTELSAT 30 (IS-30),2014-062A,2026-06-06T09:13:59.304288,1.00269463,.00009967,0.0244,46.7427,357.6338,253.8489,0,U,40271,999,668,0,-.137E-5,0
DIRECTV 14,2014-078B,2026-06-06T13:00:04.315104,1.00270474,.00004664,0.0096,338.0012,191.4443,181.2966,0,U,40333,999,4193,0,-.112E-5,0
DIRECTV 15,2015-026A,2026-06-06T12:47:57.922656,1.00273654,.00002808,0.0179,359.7358,227.3702,116.9602,0,U,40663,999,4035,0,-.9E-6,0
SKY MEXICO-1,2015-026B,2026-06-06T13:05:48.765120,1.00272186,.00022891,0.0126,39.5462,52.9131,280.1621,0,U,40664,999,4034,0,-.221E-5,0
INTELSAT 34 (IS-34),2015-039A,2026-06-06T08:04:28.788384,1.00283691,.00008138,0.0091,337.6092,86.6052,256.1803,0,U,40874,999,3952,0,-.272E-5,0
INTELSAT 31 (IS-31),2016-035A,2026-06-06T11:18:37.137888,1.00273751,.00007261,0.0185,257.9075,329.0435,102.5549,0,U,41581,999,3657,0,-.138E-5,0
INTELSAT 36 (IS-36),2016-053A,2026-06-06T12:05:13.208640,1.00267189,.00019961,0.0108,357.9803,341.5158,165.2215,0,U,41747,999,3585,0,-.1E-6,0
INTELSAT 32E (IS-32E),2017-007B,2026-06-06T11:33:20.725632,1.00273937,.0000411,0.0182,342.9968,7.9347,34.1321,0,U,41945,999,3411,0,-.256E-5,0
INTELSAT 35E (IS-35E),2017-041A,2026-06-06T11:35:50.487072,1.00273362,.0001915,0.0138,46.2265,28.2503,319.9042,0,U,42818,999,3270,0,-.224E-5,0
INTELSAT 37E (IS-37E),2017-059A,2026-06-06T09:57:53.921952,1.00271718,.00025805,0.0117,42.3787,49.6271,294.3179,0,U,42950,999,3195,0,-.127E-5,0
AZERSPACE 2 (IS-38),2018-074A,2026-06-05T22:42:18.667296,1.00271693,.00015089,0.0175,331.2890,106.1415,202.6298,0,U,43632,999,2833,0,.149E-5,0
HORIZONS-3E,2018-074B,2026-06-06T14:39:05.371776,1.00270152,.00008889,0.0028,267.2125,3.6571,12.9260,0,U,43633,999,2823,0,-.17E-6,0
AT&T T-16,2019-034A,2026-06-05T14:44:55.316832,1.00272858,.0000379,0.0214,58.9245,229.6587,85.8428,0,U,44333,999,2551,0,-.103E-5,0
INTELSAT 39 (IS-39),2019-049B,2026-06-06T15:08:56.658912,1.00266909,.00002783,0.0173,316.2772,327.6995,260.2628,0,U,44476,999,2502,0,.48E-6,0
GALAXY 30 (G-30),2020-056C,2026-06-06T12:52:42.520800,1.00272592,.00023159,0.0173,344.6466,88.8814,249.5925,0,U,46114,999,2118,0,.5E-6,0
GALAXY 33 (G-33),2022-128A,2026-06-06T12:50:27.735936,1.00272166,.00019428,0.0218,49.3833,26.4775,238.7213,0,U,54026,999,1363,0,.92E-6,0
GALAXY 34 (G-34),2022-128B,2026-06-05T23:10:11.515584,1.00274021,.00020011,0.0081,33.4234,61.9178,17.6089,0,U,54027,999,1380,0,.71E-6,0
GALAXY 31 (G-31),2022-153A,2026-06-06T12:53:49.912800,1.00272271,.00014154,0.0238,85.6019,350.9516,250.8621,0,U,54243,999,702,0,.26E-6,0
GALAXY 32 (G-32),2022-153B,2026-06-06T09:37:03.420192,1.00272104,.00023464,0.0137,23.8026,13.8118,270.4767,0,U,54244,999,1303,0,-.161E-5,0
GALAXY 35 (G-35),2022-170A,2026-06-06T13:01:49.147680,1.00272017,.00021972,0.0132,56.5995,22.4697,278.2534,0,U,54741,999,1278,0,-.149E-5,0
GALAXY 36 (G-36),2022-170B,2026-06-06T13:02:56.539680,1.00271658,.00027789,0.0047,223.4787,219.0961,279.1320,0,U,54742,999,1266,0,-.172E-5,0
GALAXY 37 (G-37),2023-112A,2026-06-06T12:52:05.081088,1.00271478,.00021106,0.0183,326.4759,109.7843,244.7203,0,U,57493,999,1043,0,.61E-6,0
